NORAD_CAT_ID,OBJECT_NAME,OBJECT_TYPE,EPOCH,MEAN_MOTION,ECCENTRICITY,INCLINATION,RA_OF_ASC_NODE,ARG_OF_PERICENTER,MEAN_ANOMALY,BSTAR,MEAN_MOTION_DOT,MEAN_MOTION_DDOT,TLE_LINE0,TLE_LINE1,TLE_LINE2,SEMIMAJOR_AXIS,PERIOD,APOGEE,PERIGEE,DECAYED
56802.0,STARLINK-6070,PAYLOAD,2023-06-21 18:35:33,15.69949707,0.0003575,70.0012,352.8488,268.7431,91.3355,0.0005569,0.00067363,0.0,0 STARLINK-6070,1 56802U 23078AM  23172.77469860  .00067363  00000-0  55690-3 0  9996,2 56802  70.0012 352.8488 0003575 268.7431  91.3355 15.69949707  3682,6737.178,91.723,361.451,356.634,0.0
56802.0,STARLINK-6070,PAYLOAD,2023-06-21 20:07:18,15.69952342,0.0003598,70.0013,352.6697,268.1151,91.9633,0.00044064,0.00053171,0.0,0 STARLINK-6070,1 56802U 23078AM  23172.83841413  .00053171  00000-0  44064-3 0  9996,2 56802  70.0013 352.6697 0003598 268.1151  91.9633 15.69952342  3438,6737.17,91.723,361.459,356.611,0.0
56802.0,STARLINK-6070,PAYLOAD,2023-06-22 00:42:34,15.69930215,0.0003598,70.0011,352.1326,272.0561,88.0223,0.00012099,0.00014364,0.0,0 STARLINK-6070,1 56802U 23078AM  23173.02956745  .00014364  00000-0  12099-3 0  9997,2 56802  70.0011 352.1326 0003598 272.0561  88.0223 15.69930215  3728,6737.234,91.724,361.523,356.675,0.0
56802.0,STARLINK-6070,PAYLOAD,2023-06-22 05:17:49,15.69948752,0.0003623,70.001,351.5952,272.1957,87.8824,0.0002963,0.00035604,0.0,0 STARLINK-6070,1 56802U 23078AM  23173.22071623  .00035604  00000-0  29630-3 0  9991,2 56802  70.0010 351.5952 0003623 272.1957  87.8824 15.69948752  3756,6737.181,91.723,361.487,356.605,0.0
56802.0,STARLINK-6070,PAYLOAD,2023-06-22 14:28:20,15.69927288,0.0004122,70.001,350.52,269.8637,90.2086,0.00049719,0.00060016,0.0,0 STARLINK-6070,1 56802U 23078AM  23173.60301879  .00060016  00000-0  49719-3 0  9997,2 56802  70.0010 350.5200 0004122 269.8637  90.2086 15.69927288  3810,6737.242,91.724,361.884,356.33,0.0
56802.0,STARLINK-6070,PAYLOAD,2023-06-23 14:56:22,15.6994264,0.0004357,70.0014,347.6539,278.0982,81.9719,0.00038054,0.00045839,0.0,0 STARLINK-6070,1 56802U 23078AM  23174.62248610  .00045839  00000-0  38054-3 0  9999,2 56802  70.0014 347.6539 0004357 278.0982  81.9719 15.69942640  3977,6737.198,91.723,361.999,356.128,0.0
56802.0,STARLINK-6070,PAYLOAD,2023-06-23 21:03:23,15.69937943,0.0003767,70.0013,346.9371,269.4462,90.6302,0.00017723,0.00021165,0.0,0 STARLINK-6070,1 56802U 23078AM  23174.87735178  .00021165  00000-0  17723-3 0  9992,2 56802  70.0013 346.9371 0003767 269.4462  90.6302 15.69937943  4014,6737.212,91.723,361.614,356.539,0.0
56802.0,STARLINK-6070,PAYLOAD,2023-06-24 06:13:54,15.69935307,0.0003753,70.0011,345.8621,270.2786,89.7979,0.00015215,0.00018131,0.0,0 STARLINK-6070,1 56802U 23078AM  23175.25965317  .00018131  00000-0  15215-3 0  9998,2 56802  70.0011 345.8621 0003753 270.2786  89.7979 15.69935307  4079,6737.219,91.724,361.613,356.556,0.0
56802.0,STARLINK-6070,PAYLOAD,2023-06-24 21:31:25,15.69937052,0.0003694,70.0,344.069,276.1924,83.8851,0.00017773,0.00021224,0.0,0 STARLINK-6070,1 56802U 23078AM  23175.89681968  .00021224  00000-0  17773-3 0  9993,2 56802  70.0000 344.0690 0003694 276.1924  83.8851 15.69937052  4171,6737.214,91.723,361.568,356.59,0.0
56802.0,STARLINK-6070,PAYLOAD,2023-06-25 05:10:10,15.69933216,0.0003205,70.0,343.1755,260.3063,99.7771,0.00011576,0.00013734,0.0,0 STARLINK-6070,1 56802U 23078AM  23176.21540330  .00013734  00000-0  11576-3 0  9999,2 56802  70.0000 343.1755 0003205 260.3063  99.7771 15.69933216  4221,6737.225,91.724,361.249,356.931,0.0
56802.0,STARLINK-6070,PAYLOAD,2023-06-25 17:24:11,15.69935536,0.0003552,70.0001,341.7424,268.7245,91.3544,5.7736e-05,6.738e-05,0.0,0 STARLINK-6070,1 56802U 23078AM  23176.72513443  .00006738  00000-0  57736-4 0  9995,2 56802  70.0001 341.7424 0003552 268.7245  91.3544 15.69935536  4300,6737.218,91.724,361.476,356.69,0.0
56802.0,STARLINK-6070,PAYLOAD,2023-06-26 04:06:27,15.69922341,0.0003407,70.0002,340.4888,272.8335,87.2471,1.0473e-05,1.047e-05,0.0,0 STARLINK-6070,1 56802U 23078AM  23177.17115623  .00001047  00000-0  10473-4 0  9998,2 56802  70.0002 340.4888 0003407 272.8335  87.2471 15.69922341  4376,6737.256,91.724,361.417,356.826,0.0
56802.0,STARLINK-6070,PAYLOAD,2023-06-27 18:20:15,15.69936507,0.0003623,69.9988,336.009,267.8787,92.1993,5.148e-05,5.985e-05,0.0,0 STARLINK-6070,1 56802U 23078AM  23178.76406993  .00005985  00000-0  51480-4 0  9995,2 56802  69.9988 336.0090 0003623 267.8787  92.1993 15.69936507  4628,6737.216,91.723,361.522,356.64,0.0
56802.0,STARLINK-6070,PAYLOAD,2023-06-28 09:37:47,15.69919345,0.0003686,69.9982,334.218,269.3836,90.6937,1.2058e-06,-6.8e-07,0.0,0 STARLINK-6070,1 56802U 23078AM  23179.40124356 -.00000068  00000-0  12058-5 0  9994,2 56802  69.9982 334.2180 0003686 269.3836  90.6937 15.69919345  4726,6737.265,91.724,361.613,356.646,0.0
56802.0,STARLINK-6070,PAYLOAD,2023-06-28 21:51:48,15.69927145,0.0003499,69.9978,332.7844,269.6865,90.393,1.5458e-05,1.646e-05,0.0,0 STARLINK-6070,1 56802U 23078AM  23179.91097401  .00001646  00000-0  15458-4 0  9998,2 56802  69.9978 332.7844 0003499 269.6865  90.3930 15.69927145  4804,6737.242,91.724,361.465,356.75,0.0
56802.0,STARLINK-6070,PAYLOAD,2023-06-30 13:37:21,15.69917365,0.0002838,69.9988,328.1258,245.7055,114.3844,-1.8101e-05,-2.387e-05,0.0,0 STARLINK-6070,1 56802U 23078AM  23181.56760535 -.00002387  00000-0 -18101-4 0  9990,2 56802  69.9988 328.1258 0002838 245.7055 114.3844 15.69917365  5068,6737.27,91.725,361.047,357.223,0.0
56802.0,STARLINK-6070,PAYLOAD,2023-07-01 18:40:38,15.69918428,0.0003546,69.9982,324.7207,269.9649,90.114,-7.9316e-06,-1.166e-05,0.0,0 STARLINK-6070,1 56802U 23078AM  23182.77822707 -.00001166  00000-0 -79316-5 0  9994,2 56802  69.9982 324.7207 0003546 269.9649  90.1140 15.69918428  5254,6737.267,91.725,361.521,356.743,0.0
56802.0,STARLINK-6070,PAYLOAD,2023-07-02 09:58:09,15.69929911,0.0003461,69.9988,322.9294,272.2591,87.8209,1.4877e-05,1.577e-05,0.0,0 STARLINK-6070,1 56802U 23078AM  23183.41539021  .00001577  00000-0  14877-4 0  9994,2 56802  69.9988 322.9294 0003461 272.2591  87.8209 15.69929911  5354,6737.235,91.724,361.431,356.768,0.0
56802.0,STARLINK-6070,PAYLOAD,2023-07-03 02:47:26,15.69921784,0.0003604,69.9983,320.9604,269.0357,91.0426,2.3502e-05,2.614e-05,0.0,0 STARLINK-6070,1 56802U 23078AM  23184.11627980  .00002614  00000-0  23502-4 0  9992,2 56802  69.9983 320.9604 0003604 269.0357  91.0426 15.69921784  5465,6737.258,91.724,361.551,356.695,0.0
56802.0,STARLINK-6070,PAYLOAD,2023-07-04 09:22:28,15.69930884,0.0003309,69.9998,317.3759,267.114,92.9677,2.9512e-05,3.338e-05,0.0,0 STARLINK-6070,1 56802U 23078AM  23185.39061259  .00003338  00000-0  29512-4 0  9995,2 56802  69.9998 317.3759 0003309 267.1140  92.9677 15.69930884  5664,6737.232,91.724,361.326,356.867,0.0
56802.0,STARLINK-6070,PAYLOAD,2023-07-04 18:33:00,15.69911379,0.0003748,69.9986,316.3023,267.2811,92.7956,-2.655e-05,-3.403e-05,0.0,0 STARLINK-6070,1 56802U 23078AM  23185.77291816 -.00003403  00000-0 -26550-4 0  9995,2 56802  69.9986 316.3023 0003748 267.2811  92.7956 15.69911379  5720,6737.288,91.725,361.678,356.627,0.0
56802.0,STARLINK-6070,PAYLOAD,2023-07-05 02:11:45,15.69921789,0.0003331,69.9998,315.407,271.5251,88.5563,1.2056e-05,1.237e-05,0.0,0 STARLINK-6070,1 56802U 23078AM  23186.09150087  .00001237  00000-0  12056-4 0  9992,2 56802  69.9998 315.4070 0003331 271.5251  88.5563 15.69921789  5777,6737.258,91.724,361.367,356.879,0.0
56802.0,STARLINK-6070,PAYLOAD,2023-07-06 17:57:18,15.69933214,0.0003428,70.0003,310.7505,268.1684,91.9119,3.5263e-05,4.031e-05,0.0,0 STARLINK-6070,1 56802U 23078AM  23187.74813059  .00004031  00000-0  35263-4 0  9990,2 56802  70.0003 310.7505 0003428 268.1684  91.9119 15.69933214  6038,6737.225,91.724,361.4,356.781,0.0
56802.0,STARLINK-6070,PAYLOAD,2023-07-07 01:36:04,15.69918616,0.0003729,69.9985,309.8515,270.6419,89.4349,-1.3621e-06,-3.77e-06,0.0,0 STARLINK-6070,1 56802U 23078AM  23188.06671926 -.00000377  00000-0 -13621-5 0  9997,2 56802  69.9985 309.8515 0003729 270.6419  89.4349 15.69918616  6083,6737.267,91.724,361.644,356.62,0.0
56802.0,STARLINK-6070,PAYLOAD,2023-07-07 10:46:35,15.69926843,0.0003673,69.9989,308.7774,271.6257,88.4518,1.9132e-05,2.088e-05,0.0,0 STARLINK-6070,1 56802U 23078AM  23188.44901765  .00002088  00000-0  19132-4 0  9997,2 56802  69.9989 308.7774 0003673 271.6257  88.4518 15.69926843  6146,6737.243,91.724,361.583,356.634,0.0
56802.0,STARLINK-6070,PAYLOAD,2023-07-08 17:21:37,15.69926688,0.0003899,69.9986,305.1925,275.4442,84.6308,2.2421e-05,2.484e-05,0.0,0 STARLINK-6070,1 56802U 23078AM  23189.72335322  .00002484  00000-0  22421-4 0  9994,2 56802  69.9986 305.1925 0003899 275.4442  84.6308 15.69926688  6344,6737.244,91.724,361.736,356.482,0.0
56802.0,STARLINK-6070,PAYLOAD,2023-07-10 09:07:11,15.69924,0.0003714,69.9981,300.5345,270.1695,89.9075,1.4651e-05,1.549e-05,0.0,0 STARLINK-6070,1 56802U 23078AM  23191.37998896  .00001549  00000-0  14651-4 0  9996,2 56802  69.9981 300.5345 0003714 270.1695  89.9075 15.69924000  6606,6737.251,91.724,361.619,356.614,0.0
56802.0,STARLINK-6070,PAYLOAD,2023-07-10 15:14:11,15.69937549,0.0003449,69.9977,299.8184,270.9815,89.0986,4.4503e-05,5.145e-05,0.0,0 STARLINK-6070,1 56802U 23078AM  23191.63485081  .00005145  00000-0  44503-4 0  9997,2 56802  69.9977 299.8184 0003449 270.9815  89.0986 15.69937549  6647,6737.213,91.723,361.401,356.754,0.0
56802.0,STARLINK-6070,PAYLOAD,2023-07-11 00:24:41,15.69930767,0.0004213,69.9978,298.743,273.5133,86.5581,1.7083e-05,1.842e-05,0.0,0 STARLINK-6070,1 56802U 23078AM  23192.01715053  .00001842  00000-0  17083-4 0  9998,2 56802  69.9978 298.7430 0004213 273.5133  86.5581 15.69930767  6707,6737.232,91.724,361.935,356.259,0.0
56802.0,STARLINK-6070,PAYLOAD,2023-07-11 18:45:43,15.69925346,0.0003275,69.9975,296.593,277.7873,82.2951,2.8828e-06,1.34e-06,0.0,0 STARLINK-6070,1 56802U 23078AM  23192.78175620  .00000134  00000-0  28828-5 0  9995,2 56802  69.9975 296.5930 0003275 277.7873  82.2951 15.69925346  6823,6737.248,91.724,361.319,356.906,0.0
